{"type": "FeatureCollection", "features": [{"type": "Feature", "properties": {"iso": "TGO", "neighbor": "Togo"}, "geometry": {"type": "Polygon", "coordinates": [[[-0.09467205206884557, 10.707942123520702], [-0.09467857398243046, 10.708305117008114], [-0.09453096134029709, 10.71010247984606], [-0.09441343743648112, 10.711901973350953], [-0.0943537482411281, 10.712260250040758], [-0.09432402861985092, 10.712622118585253], [-0.09399783161632565, 10.71439658483728], [-0.09370136485617943, 10.716176069459623], [-0.0936062230040934, 10.716526867392105], [-0.09354054806415259, 10.716884126144189], [-0.01995254806415257, 11.028637720535448], [-0.01874767766138076, 11.032799339295103], [-0.01713302097216335, 11.036824946583476], [-0.015124128023078663, 11.040675779947385], [-0.012740345551398951, 11.04431476131728], [-0.010004630685434548, 11.047706853798939], [-0.006943329854838581, 11.050819398771646], [-0.003585925060086915, 11.053622430058999], [3.5250055302820194e-05, 11.056088962160139], [0.0038853215954337415, 11.05819524977949], [0.007927211266711193, 11.059921016169348], [0.01212199346207913, 11.061249648099261], [0.01642927013589496, 11.06216835558648], [0.020807559859192897, 11.062668294859426], [0.02521469730852094, 11.062744653378115], [0.029608239341055678, 11.062396696098592], [0.033945873745269424, 11.061627772539076], [0.03818582673065744, 11.060445284580185], [0.04228726523217634, 11.05886061530716], [0.046210690154982165, 11.056889019574431], [0.049918316772306084, 11.054549477339123], [0.053374438613028374, 11.05186451116636], [0.05654577133451448, 11.048859969652643], [0.0594017732690297, 11.045564778840264], [0.06191493955669519, 11.042010664003298], [0.06406106703232428, 11.03823184447055], [0.06581948731513405, 11.034264704410877], [0.06717326585655073, 11.030147442738386], [0.06810936502916987, 11.025919705497493], [0.06861876968623526, 11.021622204258083], [0.06869657398243045, 11.017296324187908], [0.06834202861985093, 11.012983725571184], [0.06755854806415257, 11.008725942607887], [-0.0011298122543559677, 10.717720190667956], [0.4027237437288598, 10.218740911993999], [0.40384343095430364, 10.217207600494817], [0.40498284239424376, 10.215688419936267], [0.40512925709974984, 10.215446767482534], [0.4052960953994891, 10.215218295456188], [0.40625767819196174, 10.213584340979201], [0.40724029834353115, 10.21196254584325], [0.4073619404068288, 10.211707930375235], [0.40750522045370624, 10.211464461847859], [0.40829943824524045, 10.209745596982806], [0.4091158039392459, 10.208036802743964], [0.40921150188076616, 10.207771675907983], [0.40932984380960863, 10.207515555132066], [0.4099490478487064, 10.205728330616957], [0.41059129703724556, 10.203948991031732], [0.4106601292335, 10.203675905779331], [0.41075239334683844, 10.203409598923852], [0.41119062036011134, 10.20157122436387], [0.41165256783240994, 10.199738473120709], [0.4116938713917202, 10.199460059136708], [0.41175916913570715, 10.199186130552109], [0.41201219875745926, 10.197314308772862], [0.41228939570683193, 10.195445794573095], [0.4123027728533433, 10.195164732961118], [0.4123404753750087, 10.194885820495534], [0.41240587079166124, 10.192998577122513], [0.41249564765995533, 10.191112293777088], [0.41082285394904616, 9.467590348323368], [0.5044916332755078, 8.69324028771917], [0.7491687048216908, 8.33745884196864], [0.7497583507888269, 8.336503373427128], [0.7503934670284155, 8.335576872051499], [0.7509061972632564, 8.334643384202503], [0.7514657811204152, 8.333736622148935], [0.7519579352376082, 8.332728560133852], [0.7524982104999068, 8.331744915981034], [0.7529159971930593, 8.330766187985915], [0.7533830596586123, 8.329809513120006], [0.7537729822126736, 8.32875856437192], [0.7542132133515634, 8.32772724895647], [0.7545320329887842, 8.326712705237796], [0.7549020759958686, 8.325715329525073], [0.7551860118194511, 8.324631614048377], [0.7555219591684076, 8.323562558220251], [0.7557387413423041, 8.322521968378448], [0.7560082011744771, 8.321493496002585], [0.7561834158103856, 8.320387449651413], [0.7564118440127902, 8.319290948004696], [0.7565245009925236, 8.318234332770947], [0.7566907826042985, 8.31718466768111], [0.7567555886398062, 8.316066941692327], [0.7568742978071988, 8.314953553459944], [0.7568817446444697, 8.313891088219275], [0.7569432466530269, 8.312830338779445], [0.7568970199705852, 8.311711697218826], [0.756904866868791, 8.310592144606286], [0.7568070318464855, 8.309534061418866], [0.7567631619538617, 8.308472443076315], [0.7566063477416927, 8.307363659184743], [0.7565032568007922, 8.306248724121039], [0.7563010821236572, 8.305205213184735], [0.7561522628209005, 8.304152950094315], [0.7558863712855907, 8.303064702531874], [0.7556733353277002, 8.301965122831485], [0.5367282504243784, 7.409896432991619], [0.6139050210095827, 6.926608169253041], [0.8769225188579378, 6.300649097247127], [1.098090396843411, 5.952704514919441], [1.1002596261247077, 5.948888089082198], [1.1020423081249653, 5.944878535949798], [1.1034212746420078, 5.940714465941581], [1.1043832454744567, 5.936435978308262], [1.1049189563173285, 5.9320842750695775], [1.1050232479823572, 5.927701264298182], [1.1046951160837966, 5.923329156567323], [1.1039377207112056, 5.919010058447068], [1.1027583559960563, 5.914785566963771], [1.1011683798652616, 5.910696368929664], [1.0991831046581308, 5.906781849003959], [1.0968216496601708, 5.903079710264047], [1.0941067569739138, 5.899625610946086], [1.09106457250004, 5.896452820859445], [1.0877243941380603, 5.8935919007907165], [1.0841183896315276, 5.891070407992055], [1.0802812867750822, 5.888912630597568], [1.0762500389668057, 5.887139353532776], [1.0720634693267959, 5.88576765817845], [1.067761896809298, 5.884810757724487], [1.063386747909134, 5.884277869804825], [1.0589801577019125, 5.884174127644334], [1.0545845640602156, 5.884500530576495], [1.0502422989536897, 5.885253934410138], [1.0459951807690335, 5.886427081738374], [1.0418841115760766, 5.888008671896752], [1.037948683218486, 5.889983469894422], [1.034226796022669, 5.89233245326553], [1.0307542937969127, 5.895032995421622], [1.027564618635913, 5.89805908373344], [1.0246884888551246, 5.901381570235204], [1.0221536031565885, 5.9049684525298085], [0.7989626031565887, 6.256126061261303], [0.7981885171991762, 6.2574871690437055], [0.7973762271961224, 6.258826093617184], [0.7971044370653974, 6.259393346619246], [0.7967933738752921, 6.259940299069457], [0.7961572266893603, 6.261370263953978], [0.7954808723978536, 6.2627818745308295], [0.5289338723978535, 6.897183853441779], [0.5286142344521422, 6.898063212783272], [0.5282452972935705, 6.898923336918901], [0.527866591953414, 6.900120053612288], [0.5274377049873381, 6.9012999614012704], [0.5272064268535409, 6.902206181724534], [0.5269241879268955, 6.9030980566618805], [0.5266654605378258, 6.904325850775518], [0.5263551338746274, 6.9055417998764375], [0.5262144428876011, 6.906466153149863], [0.5260216203080346, 6.907381188940354], [0.44659462030803443, 7.404773793800902], [0.4465874951625926, 7.404838932989848], [0.4465741559872098, 7.404903105094528], [0.4463498449785218, 7.407011562457943], [0.4461192866565506, 7.4091193469476675], [0.4461186342720571, 7.409184864389679], [0.44611170219280094, 7.409250023409354], [0.44609687481518345, 7.411370109941163], [0.44607576469535154, 7.4134901339047685], [0.4460815913546256, 7.413555398625741], [0.4460811331312089, 7.413620917026157], [0.4462759321804121, 7.415732215027408], [0.4464644735647152, 7.4178440614542165], [0.4464767231538429, 7.417908444932588], [0.44648274319920755, 7.4179736917371075], [0.44688529265389754, 7.4200558687511196], [0.44728166978573963, 7.422139199986593], [0.4473002243344814, 7.422202082205909], [0.4473126646722996, 7.422266429072069], [0.6636728767317982, 8.303788471216967], [0.42405229517830906, 8.652251286062524], [0.42304975073962625, 8.653874481602525], [0.4220267793229107, 8.655485165573669], [0.42190152005617243, 8.655733545632128], [0.4217552188795848, 8.655970416586324], [0.4209184347740911, 8.657682926889327], [0.4200600822700905, 8.659384964541104], [0.4199600521346006, 8.659644283613767], [0.4198379403413876, 8.659894188060115], [0.4191749752574545, 8.661679518154333], [0.4184895080700028, 8.663456515371799], [0.418415670410648, 8.663724275750393], [0.4183189240041314, 8.663984806608442], [0.41783616265792917, 8.665825760653073], [0.41733018221075757, 8.667660601859156], [0.41728324812456163, 8.667934224612859], [0.41721279882552287, 8.668202872531007], [0.4169148904727185, 8.670081719505049], [0.41659326963413135, 8.671956732573584], [0.32130226963413133, 9.459749277186674], [0.3212662415655009, 9.460257615169542], [0.32119160429316795, 9.46076184674109], [0.32111260680124476, 9.462425316220674], [0.32099486721107445, 9.464086547083946], [0.3210095254075449, 9.464595914196988], [0.3209853523400446, 9.465104927559954], [0.32262847377864196, 10.175812208140504], [-0.08492874372885982, 10.679433311168328], [-0.08514437006475689, 10.679728153758603], [-0.08538377326902973, 10.68000471186424], [-0.08643011361076426, 10.681486244555431], [-0.08750109539948911, 10.682950668191873], [-0.08768627441152947, 10.683264856380596], [-0.08789693955669521, 10.683563138445324], [-0.08879046569035394, 10.685138300917247], [-0.08971022045370629, 10.686698809342495], [-0.08986316876676974, 10.687029316660631], [-0.0900430670323243, 10.687346449353546], [-0.09077517381279648, 10.689000068697268], [-0.09153484380960872, 10.69064163010305], [-0.09165408844782978, 10.690985272999887], [-0.09180148731513407, 10.691318201519264], [-0.09236512415390169, 10.693034349672748], [-0.09295739334683845, 10.694741152110423], [-0.09304178591916996, 10.695094620635842], [-0.09315526585655075, 10.695440138152716], [-0.09354500462273829, 10.69720228540607], [-0.09396416913570722, 10.698957889171238], [-0.09401289689554153, 10.69931777887128], [-0.09409136502916987, 10.69967255743355], [-0.09430345232541111, 10.701463731707893], [-0.0945454753750087, 10.703251227749607], [-0.09455806904738137, 10.703614072467552], [-0.09460076968623525, 10.703974695066098], [-0.09463316299592954, 10.705777645428597], [-0.09469571376788398, 10.707579818254306], [-0.09467205206884557, 10.707942123520702]]]}}, {"type": "Feature", "properties": {"iso": "BFA", "neighbor": "Burkina Faso"}, "geometry": {"type": "Polygon", "coordinates": [[[-3.0087706935175786, 10.39666962470716], [-3.008774645178651, 10.397130701336057], [-2.9852876451786505, 10.964482351070373], [-2.9852274585925875, 10.965138978105466], [-2.9852130509555557, 10.965798105128055], [-2.9850300343356055, 10.967292838242082], [-2.9848925950094944, 10.96879226521928], [-2.9847671407284375, 10.969439929364434], [-2.984686995213618, 10.970094486581692], [-2.9843556251426073, 10.971564389670634], [-2.984069143503191, 10.97304334984164], [-2.983879629720446, 10.973675814217696], [-2.9837345181729593, 10.974319498255042], [-2.983257985925823, 10.975750416644699], [-2.98282522094789, 10.977194668054407], [-2.982573472784782, 10.977805842416712], [-2.982364792708158, 10.978432454872493], [-2.9817476875509312, 10.979810609889345], [-2.981172806997795, 10.981206245402406], [-2.9808612489267547, 10.981790244765937], [-2.980591010024207, 10.982393751880656], [-2.9798392750168987, 10.983705873478359], [-2.9791278153025478, 10.985039454642461], [-2.978759447798119, 10.985590655921433], [-2.9784302526180024, 10.986165246652416], [-2.977551127379668, 10.987398701121172], [-2.97670994025008, 10.988657387497831], [-2.976288310892695, 10.989170483615833], [-2.9759033297645554, 10.989710625559226], [-2.9749052807518197, 10.990853537091438], [-2.973942467298891, 10.992025209812256], [-2.9734716366097556, 10.992495260763295], [-2.9730345771123012, 10.992995753386586], [-2.9719272160827503, 10.994037118332058], [-2.970852048726355, 10.995110496694524], [-2.9703365510623727, 10.995532977065297], [-2.9698516223175013, 10.995989001739305], [-2.9686456137632082, 10.996918794454112], [-2.9674684469527226, 10.997883544438485], [-2.966913246838207, 10.99825438693606], [-2.966385118974809, 10.998661553286835], [-2.965092077417385, 10.999470822561175], [-2.9638242479127364, 11.000317656228091], [-2.963234692228306, 11.000633290796094], [-2.962668451406398, 11.000987678932137], [-2.961300829542923, 11.00166863407322], [-2.959954547235274, 11.002389398889736], [-2.959336313724422, 11.002646787038305], [-2.95873741315269, 11.002944985248723], [-2.957308381929328, 11.003491070994633], [-2.9558966122532526, 11.004078828232878], [-2.95525565484268, 11.00427549225371], [-2.9546298622609912, 11.00451462981633], [-2.9531531840295986, 11.004920589363632], [-2.951689523098843, 11.00536968082172], [-2.951032014558768, 11.005503727608902], [-2.9503853566918052, 11.005681502394017], [-2.948875252671001, 11.005943427936172], [-2.9473737963404294, 11.006249530342757], [-2.9467060688375453, 11.006319669591315], [-2.946044773354046, 11.006434370197182], [-2.944515786671029, 11.006549740490524], [-2.942990994785913, 11.006709907072306], [-2.942319478901096, 11.006715463680667], [-2.9416499144380603, 11.006765985888716], [-1.2045989144380607, 11.053887934281699], [-1.2024451359184307, 11.053842572608126], [-1.2002912603931573, 11.053801888755869], [-1.2002418481848207, 11.05379616819203], [-1.2001921048376833, 11.053795120525342], [-1.1980532276205367, 11.053542786495374], [-1.1959137866897727, 11.053295098227776], [-0.7687508597016777, 10.982828758128186], [-0.459086388489833, 11.137613616524785], [-0.45794427965781415, 11.138116705607032], [-0.4568249506007006, 11.13866687858052], [-0.45593488286414174, 11.13900182543914], [-0.4550652160987548, 11.139384904394191], [-0.4538783488821766, 11.139775730902912], [-0.45270944803017515, 11.140215605408814], [-0.4517902053422424, 11.14046333969826], [-0.45088645699160174, 11.140760936223923], [-0.4496662615705682, 11.141035738006574], [-0.4484590460778692, 11.141361079500497], [-0.4475194812481411, 11.14151921653845], [-0.44659035490291793, 11.14172846575776], [-0.4453485824263882, 11.141884597605962], [-0.44411467843808927, 11.142092274125885], [-0.44316383998948544, 11.142159291745491], [-0.44221828364430543, 11.142278179265835], [-0.44096689306001474, 11.142314138341877], [-0.43971818374607957, 11.142402150621022], [-0.43876522877268637, 11.142377403801133], [-0.43781234865200214, 11.142404785082377], [-0.4365633915353663, 11.142320225362765], [-0.4353119026490927, 11.142287726052658], [-0.4343660086281894, 11.14217145311546], [-0.43341498148851304, 11.142107064475598], [-0.4321804859793378, 11.141902800073787], [-0.4309382700428107, 11.141750101893505], [0.031566729957189246, 11.062102921619841], [0.03586559359989699, 11.06114701245719], [0.040048287872153324, 11.059782166860483], [0.04407453114162312, 11.058021523437104], [0.04790554848465294, 11.055882031191292], [0.051504445109982304, 11.053384286564297], [0.05483656167575226, 11.050552335389435], [0.05786980807791424, 11.047413441657309], [0.06057497249547429, 11.043997825304993], [0.06292600271629802, 11.040338371540615], [0.06490025703415502, 11.036470314488852], [0.06647872230072717, 11.032430898190583], [0.06764619703262044, 11.028259018209017], [0.06839143780996015, 11.023994847282827], [0.06870726755667042, 11.019679448622345], [0.06859064465964038, 11.015354380566016], [0.06804269226112093, 11.01106129640015], [0.0670686874422511, 11.006841543194], [0.0656780104018818, 11.002735763514645], [0.06388405412013318, 10.998783503860807], [0.06170409537667475, 10.995022833592772], [0.059159128365892655, 10.99148997803662], [0.05627366251132124, 10.98821896930648], [0.053075486426496093, 10.985241318219392], [0.049595400295414975, 10.982585710475428], [0.04586691924992879, 10.980277730042443], [0.04192595060070064, 10.978339612423138], [0.03781044803017521, 10.976790030193708], [0.033560046077869186, 10.975643912891776], [0.029215678438089334, 10.974912302998982], [0.024819183746079693, 10.974602249414305], [0.020412902649092745, 10.974716739450864], [0.01603927004281075, 10.975254670015701], [-0.431687509506979, 11.052380094081707], [-0.7411916115101668, 10.897630590445262], [-0.7421859406879933, 10.897192238994522], [-0.7431568886218914, 10.896705966372412], [-0.7441953153947235, 10.896306401289133], [-0.745212783901245, 10.895857846828605], [-0.7462460800903251, 10.895517307995284], [-0.7472608909003327, 10.895126828291241], [-0.7483342006777559, 10.89482913418323], [-0.749391543008398, 10.894480669360993], [-0.7504538550015906, 10.894241224191974], [-0.7515027555048382, 10.893950299398725], [-0.7526006117269697, 10.893757344545772], [-0.753687645097082, 10.893512326579721], [-0.7547687422491461, 10.893376282161677], [-0.7558416309604279, 10.893187715137168], [-0.7569534606717174, 10.893101358718434], [-0.7580597163556945, 10.892962148177554], [-0.7591491871100935, 10.892930815377467], [-0.7602357315245933, 10.892846422808951], [-0.7613508271970879, 10.89286749696401], [-0.7624656513479977, 10.89283543499882], [-0.7635530035057965, 10.892909115814527], [-0.7646427396068425, 10.892929710695588], [-0.7657503622596982, 10.893058012493226], [-0.7668630185114867, 10.893133407900427], [-0.7679377802769642, 10.893311392543891], [-0.7690202133102272, 10.893436776334363], [-1.206489058532197, 10.965624843125664], [-2.897235425443947, 10.91974540395258], [-2.9188182957482116, 10.398352227086736], [-2.7832784350371265, 9.650238237322734], [-2.7827181192093087, 9.645928011083994], [-2.7825890388515853, 9.641584340265897], [-2.782892437078363, 9.637249056336406], [-2.7836253919988643, 9.632963911600237], [-2.78478084485653, 9.628770177056], [-2.786347668008706, 9.624708244828678], [-2.788310772091925, 9.620817239010387], [-2.790651251340723, 9.61713463866347], [-2.793346565660498, 9.61369591662471], [-2.796370757700943, 9.610534197598975], [-2.7996947028395156, 9.607679938845822], [-2.8032863896674782, 9.605160636545934], [-2.807111228277263, 9.603000560687239], [-2.8111323833821875, 9.60122052103569], [-2.8153111290604036, 9.5998376664559], [-2.819607221706696, 9.598865319524501], [-2.823979287600398, 9.598312848037883], [-2.828385221356939, 9.598185574658975], [-2.832782591425715, 9.59848472557832], [-2.837129048729116, 9.599207418686904], [-2.8413827345072953, 9.60034669137535], [-2.845502683440909, 9.601891567690057], [-2.8494492181695317, 9.603827164195728], [-2.853184331406332, 9.606134833518706], [-2.856672051969019, 9.608792344180863], [-2.859878791201992, 9.611774094982627], [-2.8627736664534558, 9.615051361859797], [-2.8653287984922384, 9.618592574825245], [-2.867519580000029, 9.622363622316373], [-2.8693249125533056, 9.626328180005478], [-2.870727409812684, 9.630448060894935], [-2.871713564962873, 9.634683583315143], [-3.0081135649628736, 10.387575610447012], [-3.0081731568216505, 10.388032976176364], [-3.0082684856881285, 10.388484447561906], [-3.0084532017205485, 10.390182303415347], [-3.008673880790691, 10.39187599118406], [-3.008687609009789, 10.39233689351542], [-3.008737489461573, 10.392795375325107], [-3.008752123153302, 10.394502840454642], [-3.0088029611484144, 10.396209624599942], [-3.0087706935175786, 10.39666962470716]]]}}, {"type": "Feature", "properties": {"iso": "CIV", "neighbor": "C\u00f4te d'Ivoire"}, "geometry": {"type": "Polygon", "coordinates": [[[-3.2892656772457793, 6.251713371000901], [-3.2892668027534593, 6.251769222355649], [-3.289099129046583, 6.253897776091702], [-3.288936807923745, 6.256026731110002], [-3.288927088874355, 6.25608175143231], [-3.2889227018215257, 6.256137443045191], [-3.2885459521532074, 6.25823939257661], [-3.2881744888721, 6.2603422631387495], [-3.2881593913796876, 6.260396071118453], [-3.288149534016066, 6.2604510666613296], [-3.027364534016066, 7.3896605717870605], [-3.0271237715234114, 7.390508439800167], [-3.026933528335773, 7.3913688415543115], [-3.0265267235842908, 7.392610993871618], [-3.026169745365704, 7.39386811763455], [-3.0258463405080893, 7.39468849231519], [-3.025571972715067, 7.39552625092653], [-3.0250443542783714, 7.396722868281583], [-3.024564842338281, 7.39793922828628], [-3.024161909681273, 7.398724209820411], [-3.0238060595947003, 7.399531257986211], [-2.609074583256799, 8.226146733049433], [-2.871668653745193, 9.634439361531333], [-2.872253466222213, 9.638746570662756], [-2.8724072398325933, 9.643089496527189], [-2.8721284936524043, 9.64742631377834], [-2.8714199121597406, 9.651715257507599], [-2.870288319381725, 9.655915025425179], [-2.868744613175402, 9.659985175525486], [-2.866803660275415, 9.66388651541072], [-2.864484153119222, 9.667581479529161], [-2.8618084298287108, 9.671034490703036], [-2.858802259081866, 9.674212302473736], [-2.855494591946321, 9.677084318978359], [-2.851917283064746, 9.679622889288678], [-2.8481047838772255, 9.68180357339015], [-2.844093810835061, 9.683605377251558], [-2.8399229918012683, 9.685010954733142], [-2.835632494043144, 9.68600677439942], [-2.8312636373995246, 9.686583249639511], [-2.826858496348148, 9.686734830849407], [-2.822459494805433, 9.686460058793944], [-2.8181089975609757, 9.68576157863783], [-2.813848902281464, 9.684646114511462], [-2.809720236013244, 9.683124404854906], [-2.8057627600694373, 9.681211099158803], [-2.8020145871067594, 9.678924617090503], [-2.7985118140798013, 9.676286971353969], [-2.7952881746076215, 9.673323555979723], [-2.7923747141005593, 9.670062902072615], [-2.7897994907759567, 9.666536403357918], [-2.787587305442189, 9.662778014156583], [-2.7857594626533255, 9.65882392268626], [-2.784333565534622, 9.654712202822783], [-2.7833233462548064, 9.650482447665377], [-2.5180173462548066, 8.227680828604415], [-2.517855234608067, 8.226482232747628], [-2.5176402819018207, 8.225291802540575], [-2.517563002520171, 8.224321563472655], [-2.5174325337777868, 8.22335691610505], [-2.517389907304886, 8.222148352422076], [-2.5172938851651057, 8.220942788975165], [-2.5173130662917567, 8.219969714403327], [-2.5172787601674065, 8.218997044722448], [-2.51735602938458, 8.217790152167105], [-2.5173798625569628, 8.216581065461856], [-2.517495319467181, 8.215614526653015], [-2.5175575063475955, 8.2146432019354], [-2.5177539271100424, 8.213449603750037], [-2.51789738606811, 8.212248638081178], [-2.5181080068487325, 8.211297943665345], [-2.5182660878402596, 8.210337318541674], [-2.5185797685086646, 8.209168510311608], [-2.518841471664227, 8.207987232139976], [-2.5191452279220004, 8.207061538450754], [-2.519397680618275, 8.206120864805333], [-2.519825600276323, 8.204988103728294], [-2.5202030272849334, 8.203837890268906], [-2.520596993681047, 8.202946113139465], [-2.520941386824598, 8.202034450987782], [-2.521479424372059, 8.200948647425621], [-2.5219689404052996, 8.19984057704469], [-2.94099499612203, 7.364604468711372], [-3.196984353852145, 6.256125634021649], [-2.7705405388783793, 5.4090755226721745], [-2.769747245777512, 5.407284114361429], [-2.7689349542576527, 5.405501158976241], [-2.768858397253514, 5.405276917239314], [-2.768762429494118, 5.405060202513419], [-2.768149330160958, 5.403199997690134], [-2.767516491136802, 5.4013463508085025], [-2.7674623804865397, 5.401115716744118], [-2.767388211469784, 5.400890679352368], [-2.766961210386047, 5.398979591557067], [-2.766513918443358, 5.397073103581127], [-2.766482775262116, 5.396838298204733], [-2.7664311192761737, 5.396607105238023], [-2.76619432869573, 5.394663538388436], [-2.76593689150042, 5.392722568961984], [-2.765929015714056, 5.39248585350645], [-2.7659003702343132, 5.3922507313809485], [-2.765856070579888, 5.3902934025670834], [-2.7657909673928844, 5.388336643794877], [-2.765806434849528, 5.388100297936469], [-2.765801075747611, 5.387863510955542], [-2.7659496936490924, 5.385911270204162], [-2.766077551449676, 5.383957566654385], [-2.8115015514496755, 4.989379380067812], [-2.8122178837096654, 4.985046617945661], [-2.813357065501602, 4.980804638592516], [-2.8149081258820896, 4.976694296758543], [-2.8168561272917674, 4.972755180133856], [-2.819182309412176, 4.969025227987266], [-2.8218642698378735, 4.965540365658632], [-2.824876179823853, 4.962334158429911], [-2.828189033030471, 4.959437488114016], [-2.831770924870359, 4.956878255482192], [-2.8355873597670365, 4.954681111401907], [-2.8396015833661736, 4.9528672192807335], [-2.843774936500114, 4.9514540511098275], [-2.8480672274967884, 4.95045521907658], [-2.8524371192474955, 4.949880344372699], [-2.8568425273058504, 4.949734964464875], [-2.8612410251840097, 4.950020479723806], [-2.8655902529429427, 4.950734139927103], [-2.869848325141801, 4.951869070766524], [-2.873974234217612, 4.95341434010339], [-2.8779282454105237, 4.955355063332246], [-2.8816722794312652, 4.9576725468349245], [-2.88517027918552, 4.960344468139502], [-2.888388557023454, 4.963345091044232], [-2.8912961191701974, 4.966645513629177], [-2.8938649642128427, 4.970213946761078], [-2.8960703527693545, 4.9740160204031145], [-2.8978910457423472, 4.97801511477339], [-2.8993095088631975, 4.982172713156958], [-2.9003120815566414, 4.986448772968094], [-2.90088910849958, 4.990802111484419], [-2.9010350326071155, 4.9951908025341005], [-2.900748448550324, 4.9995725803127975], [-2.8568468624562318, 5.380924117887711], [-3.2845304611216206, 6.230477428316237], [-3.284553130806826, 6.230528545995017], [-3.284580609071779, 6.230577277057764], [-3.2854421323070544, 6.232533143928345], [-3.286308570505881, 6.234486856796312], [-3.286326090850967, 6.234539936816726], [-3.2863486319399535, 6.234591110266711], [-3.2870131587535796, 6.236621488515282], [-3.287682788530216, 6.238650201441618], [-3.2876949908046846, 6.238704732571713], [-3.287712377634691, 6.238757855531246], [-3.28817350827018, 6.24084318992517], [-3.2886398807238257, 6.24292736376622], [-3.2886466474131018, 6.242982820810191], [-3.288658712539454, 6.243037381637155], [-3.288912006056742, 6.2451575881200965], [-3.2891706297656866, 6.2472771500589515], [-3.2891718957028533, 6.2473329989163515], [-3.289178522931788, 6.247388472133033], [-3.2892215399758236, 6.249523131290352], [-3.2892699242523884, 6.2516576681907114], [-3.2892656772457793, 6.251713371000901]]]}}]}